NORAD_CAT_ID,OBJECT_NAME,OBJECT_TYPE,EPOCH,MEAN_MOTION,ECCENTRICITY,INCLINATION,RA_OF_ASC_NODE,ARG_OF_PERICENTER,MEAN_ANOMALY,BSTAR,MEAN_MOTION_DOT,MEAN_MOTION_DDOT,TLE_LINE0,TLE_LINE1,TLE_LINE2,SEMIMAJOR_AXIS,PERIOD,APOGEE,PERIGEE,DECAYED
56787.0,STARLINK-6326,PAYLOAD,2023-10-05 11:34:08,15.69927427,0.0003474,69.9998,55.6466,272.2814,87.7984,2.5808e-05,2.892e-05,0.0,0 STARLINK-6326,1 56787U 23078W   23278.48203798  .00002892  00000-0  25808-4 0  9994,2 56787  69.9998  55.6466 0003474 272.2814  87.7984 15.69927427 20019,6737.242,91.724,361.447,356.766,0.0
56787.0,STARLINK-6326,PAYLOAD,2023-10-05 19:12:53,15.69924364,0.0003405,69.9999,54.751,272.5346,87.546,1.6242e-05,1.741e-05,0.0,0 STARLINK-6326,1 56787U 23078W   23278.80062274  .00001741  00000-0  16242-4 0  9996,2 56787  69.9999  54.7510 0003405 272.5346  87.5460 15.69924364 20325,6737.25,91.724,361.409,356.821,0.0
56787.0,STARLINK-6326,PAYLOAD,2023-10-06 10:30:24,15.69944383,0.0002505,70.0011,52.9592,249.4206,110.6721,6.4503e-05,7.556e-05,0.0,0 STARLINK-6326,1 56787U 23078W   23279.43778483  .00007556  00000-0  64503-4 0  9995,2 56787  70.0011  52.9592 0002505 249.4206 110.6721 15.69944383 20423,6737.193,91.723,360.746,357.37,0.0
56787.0,STARLINK-6326,PAYLOAD,2023-10-06 12:02:10,15.69912859,0.0002687,70.0009,52.7801,247.5978,112.4933,-1.8155e-05,-2.393e-05,0.0,0 STARLINK-6326,1 56787U 23078W   23279.50151193 -.00002393  00000-0 -18155-4 0  9994,2 56787  70.0009  52.7801 0002687 247.5978 112.4933 15.69912859 20177,6737.283,91.725,360.959,357.338,0.0
56787.0,STARLINK-6326,PAYLOAD,2023-10-06 18:09:10,15.69922738,0.000301,69.9999,52.064,269.3414,90.7437,1.4894e-05,1.578e-05,0.0,0 STARLINK-6326,1 56787U 23078W   23279.75637628  .00001578  00000-0  14894-4 0  9991,2 56787  69.9999  52.0640 0003010 269.3414  90.7437 15.69922738 20471,6737.255,91.724,361.148,357.092,0.0
56787.0,STARLINK-6326,PAYLOAD,2023-10-07 10:58:27,15.69905578,0.0003774,70.0004,50.0927,278.2443,81.8325,-3.5639e-05,-4.493e-05,0.0,0 STARLINK-6326,1 56787U 23078W   23280.45726436 -.00004493  00000-0 -35639-4 0  9997,2 56787  70.0004  50.0927 0003774 278.2443  81.8325 15.69905578 20587,6737.304,91.725,361.712,356.626,0.0
56787.0,STARLINK-6326,PAYLOAD,2023-10-07 12:30:12,15.69909719,0.0003104,70.0001,49.9145,256.5563,103.5286,-2.8799e-05,-3.672e-05,0.0,0 STARLINK-6326,1 56787U 23078W   23280.52098073 -.00003672  00000-0 -28799-4 0  9991,2 56787  70.0001  49.9145 0003104 256.5563 103.5286 15.69909719 20334,6737.292,91.725,361.249,357.066,0.0
56787.0,STARLINK-6326,PAYLOAD,2023-10-07 18:37:13,15.69915704,0.0002662,69.9999,49.1978,256.4399,103.6501,-3.3502e-06,-6.15e-06,0.0,0 STARLINK-6326,1 56787U 23078W   23280.77584882 -.00000615  00000-0 -33502-5 0  9999,2 56787  69.9999  49.1978 0002662 256.4399 103.6501 15.69915704 20632,6737.275,91.725,360.934,357.347,0.0
56787.0,STARLINK-6326,PAYLOAD,2023-10-08 02:15:58,15.69925521,0.0002907,69.9998,48.302,260.0677,100.0191,2.7329e-05,3.075e-05,0.0,0 STARLINK-6326,1 56787U 23078W   23281.09442890  .00003075  00000-0  27329-4 0  9997,2 56787  69.9998  48.3020 0002907 260.0677 100.0191 15.69925521 20681,6737.247,91.724,361.071,357.154,0.0
56787.0,STARLINK-6326,PAYLOAD,2023-10-08 09:54:43,15.69937479,0.0003351,70.0003,47.4055,261.1613,98.9203,2.1667e-05,2.395e-05,0.0,0 STARLINK-6326,1 56787U 23078W   23281.41300318  .00002395  00000-0  21667-4 0  9994,2 56787  70.0003  47.4055 0003351 261.1613  98.9203 15.69937479 20735,6737.213,91.723,361.336,356.82,0.0
56787.0,STARLINK-6326,PAYLOAD,2023-10-08 11:26:29,15.69925576,0.0003455,69.9989,47.2272,270.1237,89.9563,9.0414e-06,8.75e-06,0.0,0 STARLINK-6326,1 56787U 23078W   23281.47672619  .00000875  00000-0  90414-5 0  9994,2 56787  69.9989  47.2272 0003455 270.1237  89.9563 15.69925576 20487,6737.247,91.724,361.44,356.784,0.0
56787.0,STARLINK-6326,PAYLOAD,2023-10-08 17:33:29,15.69926858,0.0003004,70.0002,46.5104,266.7192,93.366,4.7829e-06,3.63e-06,0.0,0 STARLINK-6326,1 56787U 23078W   23281.73159136  .00000363  00000-0  47829-5 0  9991,2 56787  70.0002  46.5104 0003004 266.7192  93.3660 15.69926858 20787,6737.243,91.724,361.132,357.084,0.0
56787.0,STARLINK-6326,PAYLOAD,2023-10-09 08:51:01,15.69923693,0.0002518,70.0005,44.719,273.6254,86.4654,9.6022e-06,9.42e-06,0.0,0 STARLINK-6326,1 56787U 23078W   23282.36876350  .00000942  00000-0  96022-5 0  9997,2 56787  70.0005  44.7190 0002518 273.6254  86.4654 15.69923693 20881,6737.252,91.724,360.814,357.421,0.0
56787.0,STARLINK-6326,PAYLOAD,2023-10-09 11:54:31,15.69924051,0.0002532,70.0009,44.3599,268.8823,91.2082,9.4704e-06,9.27e-06,0.0,0 STARLINK-6326,1 56787U 23078W   23282.49619641  .00000927  00000-0  94704-5 0  9997,2 56787  70.0009  44.3599 0002532 268.8823  91.2082 15.69924051 20640,6737.251,91.724,360.822,357.41,0.0
56787.0,STARLINK-6326,PAYLOAD,2023-10-09 19:33:16,15.69942561,0.0002957,70.0019,43.465,264.6574,95.4284,6.6962e-05,7.852e-05,0.0,0 STARLINK-6326,1 56787U 23078W   23282.81477395  .00007852  00000-0  66962-4 0  9999,2 56787  70.0019  43.4650 0002957 264.6574  95.4284 15.69942561 20698,6737.198,91.723,361.056,357.071,0.0
56787.0,STARLINK-6326,PAYLOAD,2023-10-10 10:50:48,15.699117,0.0003842,69.9997,41.6742,275.0944,84.9813,-2.213e-05,-2.872e-05,0.0,0 STARLINK-6326,1 56787U 23078W   23283.45195099 -.00002872  00000-0 -22130-4 0  9996,2 56787  69.9997  41.6742 0003842 275.0944  84.9813 15.69911700 21056,6737.287,91.725,361.74,356.563,0.0
56787.0,STARLINK-6326,PAYLOAD,2023-10-10 16:57:49,15.6991514,0.0003057,69.9999,40.9575,263.5824,96.5024,-2.3821e-06,-4.99e-06,0.0,0 STARLINK-6326,1 56787U 23078W   23283.70681802 -.00000499  00000-0 -23821-5 0  9998,2 56787  69.9999  40.9575 0003057 263.5824  96.5024 15.69915140 20831,6737.277,91.725,361.201,357.082,0.0
56787.0,STARLINK-6326,PAYLOAD,2023-10-11 11:18:50,15.69913468,0.0003117,70.0008,38.8072,255.9844,104.1005,-2.6633e-05,-3.412e-05,0.0,0 STARLINK-6326,1 56787U 23078W   23284.47141658 -.00003412  00000-0 -26633-4 0  9994,2 56787  70.0008  38.8072 0003117 255.9844 104.1005 15.69913468 21216,6737.282,91.725,361.247,357.047,0.0
56787.0,STARLINK-6326,PAYLOAD,2023-10-11 14:22:20,15.69928889,0.0003072,70.0006,38.4489,264.6293,95.4553,2.1253e-05,2.344e-05,0.0,0 STARLINK-6326,1 56787U 23078W   23284.59884565  .00002344  00000-0  21253-4 0  9992,2 56787  70.0006  38.4489 0003072 264.6293  95.4553 15.69928889 20972,6737.237,91.724,361.172,357.033,0.0
56787.0,STARLINK-6326,PAYLOAD,2023-10-11 17:25:50,15.69926909,0.0003489,70.0004,38.0905,267.6191,92.4605,1.8745e-05,2.042e-05,0.0,0 STARLINK-6326,1 56787U 23078W   23284.72627972  .00002042  00000-0  18745-4 0  9991,2 56787  70.0004  38.0905 0003489 267.6191  92.4605 15.69926909 21259,6737.243,91.724,361.459,356.757,0.0
56787.0,STARLINK-6326,PAYLOAD,2023-10-12 01:04:35,15.69941497,0.0002878,70.0006,37.1952,264.2305,95.8563,4.7678e-05,5.528e-05,0.0,0 STARLINK-6326,1 56787U 23078W   23285.04486006  .00005528  00000-0  47678-4 0  9997,2 56787  70.0006  37.1952 0002878 264.2305  95.8563 15.69941497 21309,6737.201,91.723,361.005,357.127,0.0
56787.0,STARLINK-6326,PAYLOAD,2023-10-12 10:15:07,15.69916655,0.0003203,70.0006,36.1202,267.4526,92.6303,1.2727e-05,1.317e-05,0.0,0 STARLINK-6326,1 56787U 23078W   23285.42717040  .00001317  00000-0  12727-4 0  9993,2 56787  70.0006  36.1202 0003203 267.4526  92.6303 15.69916655 21360,6737.272,91.725,361.295,356.979,0.0
56787.0,STARLINK-6326,PAYLOAD,2023-10-12 16:22:07,15.69927757,0.0002928,70.0005,35.4039,262.1488,97.9375,3.0777e-05,3.49e-05,0.0,0 STARLINK-6326,1 56787U 23078W   23285.68203149  .00003490  00000-0  30777-4 0  9990,2 56787  70.0005  35.4039 0002928 262.1488  97.9375 15.69927757 21408,6737.241,91.724,361.078,357.133,0.0
56787.0,STARLINK-6326,PAYLOAD,2023-10-13 13:46:39,15.69926635,0.0003003,70.001,32.8951,274.0236,86.0617,2.4518e-05,2.737e-05,0.0,0 STARLINK-6326,1 56787U 23078W   23286.57406681  .00002737  00000-0  24518-4 0  9994,2 56787  70.0010  32.8951 0003003 274.0236  86.0617 15.69926635 21284,6737.244,91.724,361.132,357.086,0.0
56787.0,STARLINK-6326,PAYLOAD,2023-10-13 16:50:09,15.69928845,0.0002868,70.0015,32.5374,273.5775,86.5093,3.1468e-05,3.573e-05,0.0,0 STARLINK-6326,1 56787U 23078W   23286.70149990  .00003573  00000-0  31468-4 0  9997,2 56787  70.0015  32.5374 0002868 273.5775  86.5093 15.69928845 21564,6737.238,91.724,361.035,357.17,0.0
56787.0,STARLINK-6326,PAYLOAD,2023-10-14 09:39:26,15.6989656,0.0003425,70.0005,30.5666,276.6821,83.3985,-5.8078e-05,-7.182e-05,0.0,0 STARLINK-6326,1 56787U 23078W   23287.40239250 -.00007182  00000-0 -58078-4 0  9992,2 56787  70.0005  30.5666 0003425 276.6821  83.3985 15.69896560 21676,6737.33,91.726,361.502,356.887,0.0
56787.0,STARLINK-6326,PAYLOAD,2023-10-14 17:18:12,15.69909133,0.0002799,69.9999,29.6693,253.6166,106.4722,-2.3363e-05,-3.018e-05,0.0,0 STARLINK-6326,1 56787U 23078W   23287.72097411 -.00003018  00000-0 -23363-4 0  9991,2 56787  69.9999  29.6693 0002799 253.6166 106.4722 15.69909133 21727,6737.294,91.725,361.045,357.273,0.0
56787.0,STARLINK-6326,PAYLOAD,2023-10-15 10:07:27,15.69929374,0.0003289,70.0014,27.7008,267.4949,92.587,3.1731e-05,3.605e-05,0.0,0 STARLINK-6326,1 56787U 23078W   23288.42185173  .00003605  00000-0  31731-4 0  9990,2 56787  70.0014  27.7008 0003289 267.4949  92.5870 15.69929374 21834,6737.236,91.724,361.317,356.885,0.0
56787.0,STARLINK-6326,PAYLOAD,2023-10-15 14:42:43,15.69922847,0.0003112,70.001,27.1642,271.1456,88.9383,1.3232e-05,1.379e-05,0.0,0 STARLINK-6326,1 56787U 23078W   23288.61300513  .00001379  00000-0  13232-4 0  9990,2 56787  70.0010  27.1642 0003112 271.1456  88.9383 15.69922847 21609,6737.255,91.724,361.216,357.023,0.0
56787.0,STARLINK-6326,PAYLOAD,2023-10-15 16:14:28,15.69923567,0.000308,70.0006,26.9849,271.6129,88.4714,1.4598e-05,1.543e-05,0.0,0 STARLINK-6326,1 56787U 23078W   23288.67672249  .00001543  00000-0  14598-4 0  9993,2 56787  70.0006  26.9849 0003080 271.6129  88.4714 15.69923567 21878,6737.253,91.724,361.193,357.043,0.0
